0 COSMOS 2008
1 19902U 89025A   13281.83047225 -.00000009  00000-0  39969-4 0  3603
2 19902 074.0097 174.8639 0049399 126.0509 297.9925 12.57795695127082
0 COSMOS 2008
1 19902U 89025A   13284.15671520 -.00000000  00000-0  92004-4 0  3613
2 19902 074.0102 171.7245 0049402 122.5082 031.3724 12.57795699127373
0 COSMOS 2008
1 19902U 89025A   13286.37607760  .00000021  00000-0  21603-3 0  3623
2 19902 074.0098 168.7289 0049396 119.0705 000.8474 12.57795521127654
0 COSMOS 2008
1 19902U 89025A   13288.83068341  .00000011  00000-0  16199-3 0  3636
2 19902 074.0091 165.4157 0049382 115.2742 315.5184 12.57795779127962
0 COSMOS 2008
1 19902U 89025A   13291.14717056 -.00000015  00000-0  47446-5 0  3645
2 19902 074.0087 162.2888 0049382 111.6939 004.7745 12.57796121128256
0 COSMOS 2008
1 19902U 89025A   13293.51787079 -.00000030  00000-0 -81257-4 0  3656
2 19902 074.0086 159.0886 0049382 108.0266 299.5184 12.57796265128553
0 COSMOS 2008
1 19902U 89025A   13295.58391292 -.00000018  00000-0 -10546-4 0  3663
2 19902 074.0084 156.2997 0049363 104.8593 294.7164 12.57796234128819
